[{"OBJECT_NAME":"STARLINK-31359","OBJECT_ID":"2024-027Q","EPOCH":"2026-03-09T20:38:17.799936","MEAN_MOTION":15.30181732,"ECCENTRICITY":0.00012847,"INCLINATION":53.1579,"RA_OF_ASC_NODE":270.3947,"ARG_OF_PERICENTER":99.4481,"MEAN_ANOMALY":260.6665,"EPHEMERIS_TYPE":0,"CLASSIFICATION_TYPE":"U","NORAD_CAT_ID":58945,"ELEMENT_SET_NO":999,"REV_AT_EPOCH":11790,"BSTAR":5.5195127e-5,"MEAN_MOTION_DOT":1.275e-5,"MEAN_MOTION_DDOT":0},{"OBJECT_NAME":"CZ-2C DEB","OBJECT_ID":"2018-056F","EPOCH":"2026-03-09T10:57:26.102304","MEAN_MOTION":15.27739248,"ECCENTRICITY":0.00119172,"INCLINATION":98.1188,"RA_OF_ASC_NODE":250.032,"ARG_OF_PERICENTER":4.6998,"MEAN_ANOMALY":355.4349,"EPHEMERIS_TYPE":0,"CLASSIFICATION_TYPE":"U","NORAD_CAT_ID":43534,"ELEMENT_SET_NO":999,"REV_AT_EPOCH":41855,"BSTAR":0.00085537155,"MEAN_MOTION_DOT":0.00023193,"MEAN_MOTION_DDOT":0}]
